STARLINK-34331          
1 64204U 25117B   25281.31447918  .00063336  00000+0  21285-2 0  9997
2 64204  53.1591  27.5701 0001195  93.2377 266.8761 15.30259695 21195
STARLINK-34251          
1 64205U 25117C   25280.72982057  .00036830  00000+0  12495-2 0  9992
2 64205  53.1574  30.3188 0001321  88.3717 271.7435 15.30197760 21100
STARLINK-34311          
1 64206U 25117D   25280.47172714  .00016214  00000+0  55829-3 0  9999
2 64206  53.1578  31.5534 0001121  84.3446 275.7682 15.30204046 21098
STARLINK-34324          
1 64207U 25117E   25281.28704628  .00035499  00000+0  12037-2 0  9994
2 64207  53.1571  27.4011 0002162  92.7622 267.3626 15.30233109 20165
STARLINK-34327          
1 64208U 25117F   25281.01101672  .00043965  00000+0  14877-2 0  9997
2 64208  53.1613  28.5227 0001445  77.8959 282.2204 15.30202367 20119
STARLINK-33944          
1 64209U 25117G   25281.28177050  .00037303  00000+0  12640-2 0  9995
2 64209  53.1595  27.3699 0002329  87.8156 272.3112 15.30231415 21228
STARLINK-34310          
1 64210U 25117H   25281.01313232  .00041391  00000+0  14013-2 0  9990
2 64210  53.1598  28.5347 0002696  86.1663 273.9646 15.30209661 21157
STARLINK-34258          
1 64211U 25117J   25281.26277577  .00031500  00000+0  10703-2 0  9992
2 64211  53.1596  27.2496 0001899  82.6823 277.4394 15.30224575 21194
STARLINK-34284          
1 64212U 25117K   25281.26910867  .00037294  00000+0  12636-2 0  9992
2 64212  53.1587  27.2858 0002305  91.9049 268.2216 15.30233089 21194
STARLINK-34332          
1 64213U 25117L   25280.73720583  .00017839  00000+0  61241-3 0  9998
2 64213  53.1594  30.3665 0001280  64.4112 295.7021 15.30230080 21132
STARLINK-34283          
1 64214U 25117M   25281.00363137  .00030079  00000+0  10231-2 0  9991
2 64214  53.1583  28.4736 0001896  80.9565 279.1650 15.30213705 21157
STARLINK-34349          
1 64215U 25117N   25281.04056424  .00056408  00000+0  18991-2 0  9999
2 64215  53.1604  28.6998 0000361   9.1867 350.9140 15.30254012 21156
STARLINK-34296          
1 64216U 25117P   25281.02368850  .00035173  00000+0  11939-2 0  9998
2 64216  53.1606  28.5969 0001527  85.8394 274.2781 15.30204043 21188
STARLINK-34320          
1 64217U 25117Q   25281.25761019  .00038408  00000+0  13008-2 0  9991
2 64217  53.1577  27.9276 0001693  80.9421 279.1771 15.30235555 21186
STARLINK-34300          
1 64218U 25117R   25281.27543943  .00036303  00000+0  12309-2 0  9993
2 64218  53.1605  27.3285 0001833  88.6056 271.5154 15.30225130 21198
STARLINK-34323          
1 64219U 25117S   25280.62757264  .00030092  00000+0  10236-2 0  9991
2 64219  53.1615  30.3895 0000956  97.1112 262.9998 15.30211631 21128
