[{"OBJECT_NAME":"STARLINK-34331","OBJECT_ID":"2025-117B","EPOCH":"2025-10-08T07:32:51.001152","MEAN_MOTION":15.30259695,"ECCENTRICITY":0.00011954,"INCLINATION":53.1591,"RA_OF_ASC_NODE":27.5701,"ARG_OF_PERICENTER":93.2377,"MEAN_ANOMALY":266.8761,"EPHEMERIS_TYPE":0,"CLASSIFICATION_TYPE":"U","NORAD_CAT_ID":64204,"ELEMENT_SET_NO":999,"REV_AT_EPOCH":2119,"BSTAR":0.002128461,"MEAN_MOTION_DOT":0.00063336,"MEAN_MOTION_DDOT":0},{"OBJECT_NAME":"STARLINK-34251","OBJECT_ID":"2025-117C","EPOCH":"2025-10-07T17:30:56.497248","MEAN_MOTION":15.3019776,"ECCENTRICITY":0.00013216,"INCLINATION":53.1574,"RA_OF_ASC_NODE":30.3188,"ARG_OF_PERICENTER":88.3717,"MEAN_ANOMALY":271.7435,"EPHEMERIS_TYPE":0,"CLASSIFICATION_TYPE":"U","NORAD_CAT_ID":64205,"ELEMENT_SET_NO":999,"REV_AT_EPOCH":2110,"BSTAR":0.0012495445,"MEAN_MOTION_DOT":0.0003683,"MEAN_MOTION_DDOT":0},{"OBJECT_NAME":"STARLINK-34311","OBJECT_ID":"2025-117D","EPOCH":"2025-10-07T11:19:17.224896","MEAN_MOTION":15.30204046,"ECCENTRICITY":0.00011213,"INCLINATION":53.1578,"RA_OF_ASC_NODE":31.5534,"ARG_OF_PERICENTER":84.3446,"MEAN_ANOMALY":275.7682,"EPHEMERIS_TYPE":0,"CLASSIFICATION_TYPE":"U","NORAD_CAT_ID":64206,"ELEMENT_SET_NO":999,"REV_AT_EPOCH":2109,"BSTAR":0.00055828869,"MEAN_MOTION_DOT":0.00016214,"MEAN_MOTION_DDOT":0},{"OBJECT_NAME":"STARLINK-34324","OBJECT_ID":"2025-117E","EPOCH":"2025-10-08T06:53:20.798592","MEAN_MOTION":15.30233109,"ECCENTRICITY":0.00021625,"INCLINATION":53.1571,"RA_OF_ASC_NODE":27.4011,"ARG_OF_PERICENTER":92.7622,"MEAN_ANOMALY":267.3626,"EPHEMERIS_TYPE":0,"CLASSIFICATION_TYPE":"U","NORAD_CAT_ID":64207,"ELEMENT_SET_NO":999,"REV_AT_EPOCH":2016,"BSTAR":0.0012037136,"MEAN_MOTION_DOT":0.00035499,"MEAN_MOTION_DDOT":0},{"OBJECT_NAME":"STARLINK-34327","OBJECT_ID":"2025-117F","EPOCH":"2025-10-08T00:15:51.844608","MEAN_MOTION":15.30202367,"ECCENTRICITY":0.00014453,"INCLINATION":53.1613,"RA_OF_ASC_NODE":28.5227,"ARG_OF_PERICENTER":77.8959,"MEAN_ANOMALY":282.2204,"EPHEMERIS_TYPE":0,"CLASSIFICATION_TYPE":"U","NORAD_CAT_ID":64208,"ELEMENT_SET_NO":999,"REV_AT_EPOCH":2011,"BSTAR":0.0014876526,"MEAN_MOTION_DOT":0.00043965,"MEAN_MOTION_DDOT":0},{"OBJECT_NAME":"STARLINK-33944","OBJECT_ID":"2025-117G","EPOCH":"2025-10-08T06:45:44.971200","MEAN_MOTION":15.30231415,"ECCENTRICITY":0.00023295,"INCLINATION":53.1595,"RA_OF_ASC_NODE":27.3699,"ARG_OF_PERICENTER":87.8156,"MEAN_ANOMALY":272.3112,"EPHEMERIS_TYPE":0,"CLASSIFICATION_TYPE":"U","NORAD_CAT_ID":64209,"ELEMENT_SET_NO":999,"REV_AT_EPOCH":2122,"BSTAR":0.0012640253,"MEAN_MOTION_DOT":0.00037303,"MEAN_MOTION_DDOT":0},{"OBJECT_NAME":"STARLINK-34310","OBJECT_ID":"2025-117H","EPOCH":"2025-10-08T00:18:54.632448","MEAN_MOTION":15.30209661,"ECCENTRICITY":0.00026969,"INCLINATION":53.1598,"RA_OF_ASC_NODE":28.5347,"ARG_OF_PERICENTER":86.1663,"MEAN_ANOMALY":273.9646,"EPHEMERIS_TYPE":0,"CLASSIFICATION_TYPE":"U","NORAD_CAT_ID":64210,"ELEMENT_SET_NO":999,"REV_AT_EPOCH":2115,"BSTAR":0.0014013459,"MEAN_MOTION_DOT":0.00041391,"MEAN_MOTION_DDOT":0},{"OBJECT_NAME":"STARLINK-34258","OBJECT_ID":"2025-117J","EPOCH":"2025-10-08T06:18:23.826528","MEAN_MOTION":15.30224575,"ECCENTRICITY":0.00018999,"INCLINATION":53.1596,"RA_OF_ASC_NODE":27.2496,"ARG_OF_PERICENTER":82.6823,"MEAN_ANOMALY":277.4394,"EPHEMERIS_TYPE":0,"CLASSIFICATION_TYPE":"U","NORAD_CAT_ID":64211,"ELEMENT_SET_NO":999,"REV_AT_EPOCH":2119,"BSTAR":0.0010703443,"MEAN_MOTION_DOT":0.000315,"MEAN_MOTION_DDOT":0},{"OBJECT_NAME":"STARLINK-34284","OBJECT_ID":"2025-117K","EPOCH":"2025-10-08T06:27:30.989088","MEAN_MOTION":15.30233089,"ECCENTRICITY":0.00023053,"INCLINATION":53.1587,"RA_OF_ASC_NODE":27.2858,"ARG_OF_PERICENTER":91.9049,"MEAN_ANOMALY":268.2216,"EPHEMERIS_TYPE":0,"CLASSIFICATION_TYPE":"U","NORAD_CAT_ID":64212,"ELEMENT_SET_NO":999,"REV_AT_EPOCH":2119,"BSTAR":0.0012636368,"MEAN_MOTION_DOT":0.00037294,"MEAN_MOTION_DDOT":0},{"OBJECT_NAME":"STARLINK-34332","OBJECT_ID":"2025-117L","EPOCH":"2025-10-07T17:41:34.583712","MEAN_MOTION":15.3023008,"ECCENTRICITY":0.00012806,"INCLINATION":53.1594,"RA_OF_ASC_NODE":30.3665,"ARG_OF_PERICENTER":64.4112,"MEAN_ANOMALY":295.7021,"EPHEMERIS_TYPE":0,"CLASSIFICATION_TYPE":"U","NORAD_CAT_ID":64213,"ELEMENT_SET_NO":999,"REV_AT_EPOCH":2113,"BSTAR":0.00061240548,"MEAN_MOTION_DOT":0.00017839,"MEAN_MOTION_DDOT":0},{"OBJECT_NAME":"STARLINK-34283","OBJECT_ID":"2025-117M","EPOCH":"2025-10-08T00:05:13.750368","MEAN_MOTION":15.30213705,"ECCENTRICITY":0.00018963,"INCLINATION":53.1583,"RA_OF_ASC_NODE":28.4736,"ARG_OF_PERICENTER":80.9565,"MEAN_ANOMALY":279.165,"EPHEMERIS_TYPE":0,"CLASSIFICATION_TYPE":"U","NORAD_CAT_ID":64214,"ELEMENT_SET_NO":999,"REV_AT_EPOCH":2115,"BSTAR":0.0010231167,"MEAN_MOTION_DOT":0.00030079,"MEAN_MOTION_DDOT":0},{"OBJECT_NAME":"STARLINK-34349","OBJECT_ID":"2025-117N","EPOCH":"2025-10-08T00:58:24.750336","MEAN_MOTION":15.30254012,"ECCENTRICITY":3.613e-5,"INCLINATION":53.1604,"RA_OF_ASC_NODE":28.6998,"ARG_OF_PERICENTER":9.1867,"MEAN_ANOMALY":350.914,"EPHEMERIS_TYPE":0,"CLASSIFICATION_TYPE":"U","NORAD_CAT_ID":64215,"ELEMENT_SET_NO":999,"REV_AT_EPOCH":2115,"BSTAR":0.001899056,"MEAN_MOTION_DOT":0.00056408,"MEAN_MOTION_DDOT":0},{"OBJECT_NAME":"STARLINK-34296","OBJECT_ID":"2025-117P","EPOCH":"2025-10-08T00:34:06.686400","MEAN_MOTION":15.30204043,"ECCENTRICITY":0.00015277,"INCLINATION":53.1606,"RA_OF_ASC_NODE":28.5969,"ARG_OF_PERICENTER":85.8394,"MEAN_ANOMALY":274.2781,"EPHEMERIS_TYPE":0,"CLASSIFICATION_TYPE":"U","NORAD_CAT_ID":64216,"ELEMENT_SET_NO":999,"REV_AT_EPOCH":2118,"BSTAR":0.001193923,"MEAN_MOTION_DOT":0.00035173,"MEAN_MOTION_DDOT":0},{"OBJECT_NAME":"STARLINK-34320","OBJECT_ID":"2025-117Q","EPOCH":"2025-10-08T06:10:57.520416","MEAN_MOTION":15.30235555,"ECCENTRICITY":0.0001693,"INCLINATION":53.1577,"RA_OF_ASC_NODE":27.9276,"ARG_OF_PERICENTER":80.9421,"MEAN_ANOMALY":279.1771,"EPHEMERIS_TYPE":0,"CLASSIFICATION_TYPE":"U","NORAD_CAT_ID":64217,"ELEMENT_SET_NO":999,"REV_AT_EPOCH":2118,"BSTAR":0.0013007757,"MEAN_MOTION_DOT":0.00038408,"MEAN_MOTION_DDOT":0},{"OBJECT_NAME":"STARLINK-34300","OBJECT_ID":"2025-117R","EPOCH":"2025-10-08T06:36:37.966752","MEAN_MOTION":15.3022513,"ECCENTRICITY":0.00018337,"INCLINATION":53.1605,"RA_OF_ASC_NODE":27.3285,"ARG_OF_PERICENTER":88.6056,"MEAN_ANOMALY":271.5154,"EPHEMERIS_TYPE":0,"CLASSIFICATION_TYPE":"U","NORAD_CAT_ID":64218,"ELEMENT_SET_NO":999,"REV_AT_EPOCH":2119,"BSTAR":0.0012308878,"MEAN_MOTION_DOT":0.00036303,"MEAN_MOTION_DDOT":0},{"OBJECT_NAME":"STARLINK-34323","OBJECT_ID":"2025-117S","EPOCH":"2025-10-07T15:03:42.276096","MEAN_MOTION":15.30211631,"ECCENTRICITY":9.562e-5,"INCLINATION":53.1615,"RA_OF_ASC_NODE":30.3895,"ARG_OF_PERICENTER":97.1112,"MEAN_ANOMALY":262.9998,"EPHEMERIS_TYPE":0,"CLASSIFICATION_TYPE":"U","NORAD_CAT_ID":64219,"ELEMENT_SET_NO":999,"REV_AT_EPOCH":2112,"BSTAR":0.0010236374,"MEAN_MOTION_DOT":0.00030092,"MEAN_MOTION_DDOT":0}]
